CCSDS_OMM_VERS = 2.0
CREATION_DATE  = 
ORIGINATOR     = 

OBJECT_NAME    = BOTAN
OBJECT_ID      = 1998-067XP
CENTER_NAME    = EARTH
REF_FRAME      = TEME
TIME_SYSTEM    = UTC
MEAN_ELEMENT_THEORY = SGP/SGP4

EPOCH          = 2025-11-03T19:05:41.632800
MEAN_MOTION    = 15.54427286
ECCENTRICITY   = .0004805
INCLINATION    = 51.6325
RA_OF_ASC_NODE = 334.7378
ARG_OF_PERICENTER = 16.4520
MEAN_ANOMALY   = 343.6625

EPHEMERIS_TYPE = 0
CLASSIFICATION_TYPE = U
NORAD_CAT_ID   = 65942
ELEMENT_SET_NO = 999
REV_AT_EPOCH   = 379
BSTAR          = .11037768E-2
MEAN_MOTION_DOT = .74105E-3
MEAN_MOTION_DDOT = 0

CCSDS_OMM_VERS = 2.0
CREATION_DATE  = 
ORIGINATOR     = 

OBJECT_NAME    = E-KAGAKU-1
OBJECT_ID      = 1998-067XQ
CENTER_NAME    = EARTH
REF_FRAME      = TEME
TIME_SYSTEM    = UTC
MEAN_ELEMENT_THEORY = SGP/SGP4

EPOCH          = 2025-11-03T08:27:04.684320
MEAN_MOTION    = 15.53447140
ECCENTRICITY   = .00044757
INCLINATION    = 51.6338
RA_OF_ASC_NODE = 337.0259
ARG_OF_PERICENTER = 1.7618
MEAN_ANOMALY   = 358.3388

EPHEMERIS_TYPE = 0
CLASSIFICATION_TYPE = U
NORAD_CAT_ID   = 65943
ELEMENT_SET_NO = 999
REV_AT_EPOCH   = 372
BSTAR          = .76994813E-3
MEAN_MOTION_DOT = .49569E-3
MEAN_MOTION_DDOT = 0

CCSDS_OMM_VERS = 2.0
CREATION_DATE  = 
ORIGINATOR     = 

OBJECT_NAME    = 2025-226D
OBJECT_ID      = 2025-226D
CENTER_NAME    = EARTH
REF_FRAME      = TEME
TIME_SYSTEM    = UTC
MEAN_ELEMENT_THEORY = SGP/SGP4

EPOCH          = 2025-11-04T04:09:20.668896
MEAN_MOTION    = 15.42504616
ECCENTRICITY   = .0020356
INCLINATION    = 97.6573
RA_OF_ASC_NODE = 22.8220
ARG_OF_PERICENTER = 273.9287
MEAN_ANOMALY   = 85.9632

EPHEMERIS_TYPE = 0
CLASSIFICATION_TYPE = U
NORAD_CAT_ID   = 65944
ELEMENT_SET_NO = 999
REV_AT_EPOCH   = 365
BSTAR          = .28759E-1
MEAN_MOTION_DOT = .13726E-1
MEAN_MOTION_DDOT = 0

CCSDS_OMM_VERS = 2.0
CREATION_DATE  = 
ORIGINATOR     = 

OBJECT_NAME    = SHIYAN-31
OBJECT_ID      = 2025-227A
CENTER_NAME    = EARTH
REF_FRAME      = TEME
TIME_SYSTEM    = UTC
MEAN_ELEMENT_THEORY = SGP/SGP4

EPOCH          = 2025-11-04T02:46:23.038752
MEAN_MOTION    = 15.20392705
ECCENTRICITY   = .0011468
INCLINATION    = 80.0038
RA_OF_ASC_NODE = 73.2179
ARG_OF_PERICENTER = 196.7425
MEAN_ANOMALY   = 163.3425

EPHEMERIS_TYPE = 0
CLASSIFICATION_TYPE = U
NORAD_CAT_ID   = 65945
ELEMENT_SET_NO = 999
REV_AT_EPOCH   = 330
BSTAR          = .50766E-3
MEAN_MOTION_DOT = .11101E-3
MEAN_MOTION_DDOT = 0

CCSDS_OMM_VERS = 2.0
CREATION_DATE  = 
ORIGINATOR     = 

OBJECT_NAME    = CZ-2D R/B
OBJECT_ID      = 2025-227B
CENTER_NAME    = EARTH
REF_FRAME      = TEME
TIME_SYSTEM    = UTC
MEAN_ELEMENT_THEORY = SGP/SGP4

EPOCH          = 2025-11-04T03:31:39.083232
MEAN_MOTION    = 15.27486320
ECCENTRICITY   = .002134
INCLINATION    = 80.1553
RA_OF_ASC_NODE = 73.4827
ARG_OF_PERICENTER = 323.4115
MEAN_ANOMALY   = 36.5657

EPHEMERIS_TYPE = 0
CLASSIFICATION_TYPE = U
NORAD_CAT_ID   = 65946
ELEMENT_SET_NO = 999
REV_AT_EPOCH   = 332
BSTAR          = .43605E-3
MEAN_MOTION_DOT = .11828E-3
MEAN_MOTION_DDOT = 0

CCSDS_OMM_VERS = 2.0
CREATION_DATE  = 
ORIGINATOR     = 

OBJECT_NAME    = KUIPER-00101
OBJECT_ID      = 2025-228A
CENTER_NAME    = EARTH
REF_FRAME      = TEME
TIME_SYSTEM    = UTC
MEAN_ELEMENT_THEORY = SGP/SGP4

EPOCH          = 2025-11-04T02:42:59.629824
MEAN_MOTION    = 15.34868129
ECCENTRICITY   = .0005715
INCLINATION    = 51.8802
RA_OF_ASC_NODE = 206.6605
ARG_OF_PERICENTER = 210.0970
MEAN_ANOMALY   = 149.9688

EPHEMERIS_TYPE = 0
CLASSIFICATION_TYPE = U
NORAD_CAT_ID   = 65947
ELEMENT_SET_NO = 999
REV_AT_EPOCH   = 448
BSTAR          = .86407E-3
MEAN_MOTION_DOT = .29408E-3
MEAN_MOTION_DDOT = 0

CCSDS_OMM_VERS = 2.0
CREATION_DATE  = 
ORIGINATOR     = 

OBJECT_NAME    = KUIPER-00113
OBJECT_ID      = 2025-228B
CENTER_NAME    = EARTH
REF_FRAME      = TEME
TIME_SYSTEM    = UTC
MEAN_ELEMENT_THEORY = SGP/SGP4

EPOCH          = 2025-11-04T02:37:56.370144
MEAN_MOTION    = 15.35132504
ECCENTRICITY   = .0006117
INCLINATION    = 51.8807
RA_OF_ASC_NODE = 206.6414
ARG_OF_PERICENTER = 206.6551
MEAN_ANOMALY   = 153.4121

EPHEMERIS_TYPE = 0
CLASSIFICATION_TYPE = U
NORAD_CAT_ID   = 65948
ELEMENT_SET_NO = 999
REV_AT_EPOCH   = 448
BSTAR          = .77288E-3
MEAN_MOTION_DOT = .2648E-3
MEAN_MOTION_DDOT = 0

CCSDS_OMM_VERS = 2.0
CREATION_DATE  = 
ORIGINATOR     = 

OBJECT_NAME    = KUIPER-00117
OBJECT_ID      = 2025-228C
CENTER_NAME    = EARTH
REF_FRAME      = TEME
TIME_SYSTEM    = UTC
MEAN_ELEMENT_THEORY = SGP/SGP4

EPOCH          = 2025-11-04T02:38:47.031648
MEAN_MOTION    = 15.35086973
ECCENTRICITY   = .0005929
INCLINATION    = 51.8807
RA_OF_ASC_NODE = 206.6451
ARG_OF_PERICENTER = 207.0334
MEAN_ANOMALY   = 153.0343

EPHEMERIS_TYPE = 0
CLASSIFICATION_TYPE = U
NORAD_CAT_ID   = 65949
ELEMENT_SET_NO = 999
REV_AT_EPOCH   = 448
BSTAR          = .7796E-3
MEAN_MOTION_DOT = .26674E-3
MEAN_MOTION_DDOT = 0

CCSDS_OMM_VERS = 2.0
CREATION_DATE  = 
ORIGINATOR     = 

OBJECT_NAME    = KUIPER-00121
OBJECT_ID      = 2025-228D
CENTER_NAME    = EARTH
REF_FRAME      = TEME
TIME_SYSTEM    = UTC
MEAN_ELEMENT_THEORY = SGP/SGP4

EPOCH          = 2025-11-04T02:50:37.940352
MEAN_MOTION    = 15.34491988
ECCENTRICITY   = .0005448
INCLINATION    = 51.8813
RA_OF_ASC_NODE = 206.7013
ARG_OF_PERICENTER = 225.0935
MEAN_ANOMALY   = 134.9609

EPHEMERIS_TYPE = 0
CLASSIFICATION_TYPE = U
NORAD_CAT_ID   = 65950
ELEMENT_SET_NO = 999
REV_AT_EPOCH   = 448
BSTAR          = .56439E-3
MEAN_MOTION_DOT = .18818E-3
MEAN_MOTION_DDOT = 0

CCSDS_OMM_VERS = 2.0
CREATION_DATE  = 
ORIGINATOR     = 

OBJECT_NAME    = KUIPER-00122
OBJECT_ID      = 2025-228E
CENTER_NAME    = EARTH
REF_FRAME      = TEME
TIME_SYSTEM    = UTC
MEAN_ELEMENT_THEORY = SGP/SGP4

EPOCH          = 2025-11-04T04:00:01.998720
MEAN_MOTION    = 15.30291424
ECCENTRICITY   = .0006941
INCLINATION    = 51.8820
RA_OF_ASC_NODE = 206.5578
ARG_OF_PERICENTER = 236.1667
MEAN_ANOMALY   = 351.1221

EPHEMERIS_TYPE = 0
CLASSIFICATION_TYPE = U
NORAD_CAT_ID   = 65951
ELEMENT_SET_NO = 999
REV_AT_EPOCH   = 311
BSTAR          = -.25797E-2
MEAN_MOTION_DOT = -.76339E-3
MEAN_MOTION_DDOT = 0

CCSDS_OMM_VERS = 2.0
CREATION_DATE  = 
ORIGINATOR     = 

OBJECT_NAME    = KUIPER-00123
OBJECT_ID      = 2025-228F
CENTER_NAME    = EARTH
REF_FRAME      = TEME
TIME_SYSTEM    = UTC
MEAN_ELEMENT_THEORY = SGP/SGP4

EPOCH          = 2025-11-04T04:00:01.998720
MEAN_MOTION    = 15.29924248
ECCENTRICITY   = .0004806
INCLINATION    = 51.8819
RA_OF_ASC_NODE = 206.5319
ARG_OF_PERICENTER = 233.3552
MEAN_ANOMALY   = 351.8494

EPHEMERIS_TYPE = 0
CLASSIFICATION_TYPE = U
NORAD_CAT_ID   = 65952
ELEMENT_SET_NO = 999
REV_AT_EPOCH   = 141
BSTAR          = -.37448E-1
MEAN_MOTION_DOT = -.1014583E-1
MEAN_MOTION_DDOT = 0

CCSDS_OMM_VERS = 2.0
CREATION_DATE  = 
ORIGINATOR     = 

OBJECT_NAME    = KUIPER-00124
OBJECT_ID      = 2025-228G
CENTER_NAME    = EARTH
REF_FRAME      = TEME
TIME_SYSTEM    = UTC
MEAN_ELEMENT_THEORY = SGP/SGP4

EPOCH          = 2025-11-04T02:54:02.011104
MEAN_MOTION    = 15.34313399
ECCENTRICITY   = .0005422
INCLINATION    = 51.8808
RA_OF_ASC_NODE = 206.7150
ARG_OF_PERICENTER = 234.7474
MEAN_ANOMALY   = 125.3005

EPHEMERIS_TYPE = 0
CLASSIFICATION_TYPE = U
NORAD_CAT_ID   = 65953
ELEMENT_SET_NO = 999
REV_AT_EPOCH   = 448
BSTAR          = .87515E-3
MEAN_MOTION_DOT = .29263E-3
MEAN_MOTION_DDOT = 0

