BOTAN                   
1 65942U 98067XP  25307.79562075  .00074105  00000+0  11038-2 0  9995
2 65942  51.6325 334.7378 0004805  16.4520 343.6625 15.54427286  3792
E-KAGAKU-1              
1 65943U 98067XQ  25307.35213755  .00049569  00000+0  76995-3 0  9996
2 65943  51.6338 337.0259 0004475   1.7618 358.3388 15.53447140  3721
2025-226D               
1 65944U 25226D   25308.17315589  .01372600  00000+0  28759-1 0  9992
2 65944  97.6573  22.8220 0020356 273.9287  85.9632 15.42504616  3658
SHIYAN-31               
1 65945U 25227A   25308.11554443  .00011101  00000+0  50766-3 0  9992
2 65945  80.0038  73.2179 0011468 196.7425 163.3425 15.20392705  3307
CZ-2D R/B               
1 65946U 25227B   25308.14698013  .00011828  00000+0  43605-3 0  9998
2 65946  80.1553  73.4827 0021340 323.4115  36.5657 15.27486320  3322
KUIPER-00101            
1 65947U 25228A   25308.11319016  .00029408  00000+0  86407-3 0  9990
2 65947  51.8802 206.6605 0005715 210.0970 149.9688 15.34868129  4487
KUIPER-00113            
1 65948U 25228B   25308.10968021  .00026480  00000+0  77288-3 0  9990
2 65948  51.8807 206.6414 0006117 206.6551 153.4121 15.35132504  4488
KUIPER-00117            
1 65949U 25228C   25308.11026657  .00026674  00000+0  77960-3 0  9994
2 65949  51.8807 206.6451 0005929 207.0334 153.0343 15.35086973  4484
KUIPER-00121            
1 65950U 25228D   25308.11849468  .00018818  00000+0  56439-3 0  9998
2 65950  51.8813 206.7013 0005448 225.0935 134.9609 15.34491988  4489
KUIPER-00122            
1 65951U 25228E   25308.16668980 -.00076339  00000+0 -25797-2 0  9998
2 65951  51.8820 206.5578 0006941 236.1667 351.1221 15.30291424  3117
KUIPER-00123            
1 65952U 25228F   25308.16668980 -.01014583  00000+0 -37448-1 0  9998
2 65952  51.8819 206.5319 0004806 233.3552 351.8494 15.29924248  1414
KUIPER-00124            
1 65953U 25228G   25308.12085661  .00029263  00000+0  87515-3 0  9994
2 65953  51.8808 206.7150 0005422 234.7474 125.3005 15.34313399  4488
